[{"OBJECT_NAME":"STARLINK-2404","OBJECT_ID":"2021-027B","EPOCH":"2025-08-10T10:26:04.692192","MEAN_MOTION":15.06390794,"ECCENTRICITY":0.0001541,"INCLINATION":53.0551,"RA_OF_ASC_NODE":30.181,"ARG_OF_PERICENTER":89.6776,"MEAN_ANOMALY":270.4389,"EPHEMERIS_TYPE":0,"CLASSIFICATION_TYPE":"U","NORAD_CAT_ID":48093,"ELEMENT_SET_NO":999,"REV_AT_EPOCH":24071,"BSTAR":7.6286e-5,"MEAN_MOTION_DOT":8.55e-6,"MEAN_MOTION_DDOT":0},{"OBJECT_NAME":"STARLINK-2412","OBJECT_ID":"2021-027C","EPOCH":"2025-08-10T04:29:04.386912","MEAN_MOTION":15.06405337,"ECCENTRICITY":0.0001437,"INCLINATION":53.054,"RA_OF_ASC_NODE":41.092,"ARG_OF_PERICENTER":92.6173,"MEAN_ANOMALY":267.4981,"EPHEMERIS_TYPE":0,"CLASSIFICATION_TYPE":"U","NORAD_CAT_ID":48094,"ELEMENT_SET_NO":999,"REV_AT_EPOCH":24014,"BSTAR":0.00011645,"MEAN_MOTION_DOT":1.454e-5,"MEAN_MOTION_DDOT":0},{"OBJECT_NAME":"STARLINK-2414","OBJECT_ID":"2021-027D","EPOCH":"2025-08-10T04:39:41.211072","MEAN_MOTION":15.06401713,"ECCENTRICITY":0.0001404,"INCLINATION":53.0554,"RA_OF_ASC_NODE":41.0591,"ARG_OF_PERICENTER":91.0005,"MEAN_ANOMALY":269.1145,"EPHEMERIS_TYPE":0,"CLASSIFICATION_TYPE":"U","NORAD_CAT_ID":48095,"ELEMENT_SET_NO":999,"REV_AT_EPOCH":24014,"BSTAR":5.1504e-5,"MEAN_MOTION_DOT":4.86e-6,"MEAN_MOTION_DDOT":0},{"OBJECT_NAME":"STARLINK-2417","OBJECT_ID":"2021-027E","EPOCH":"2025-08-10T05:38:04.675776","MEAN_MOTION":15.0639809,"ECCENTRICITY":0.0001291,"INCLINATION":53.0551,"RA_OF_ASC_NODE":40.8739,"ARG_OF_PERICENTER":91.884,"MEAN_ANOMALY":268.2297,"EPHEMERIS_TYPE":0,"CLASSIFICATION_TYPE":"U","NORAD_CAT_ID":48096,"ELEMENT_SET_NO":999,"REV_AT_EPOCH":24054,"BSTAR":5.8908e-5,"MEAN_MOTION_DOT":5.96e-6,"MEAN_MOTION_DDOT":0},{"OBJECT_NAME":"STARLINK-2418","OBJECT_ID":"2021-027F","EPOCH":"2025-08-10T14:42:08.697024","MEAN_MOTION":15.06380064,"ECCENTRICITY":0.0001336,"INCLINATION":53.0569,"RA_OF_ASC_NODE":19.1797,"ARG_OF_PERICENTER":94.4804,"MEAN_ANOMALY":265.6337,"EPHEMERIS_TYPE":0,"CLASSIFICATION_TYPE":"U","NORAD_CAT_ID":48097,"ELEMENT_SET_NO":999,"REV_AT_EPOCH":24088,"BSTAR":-8.3005e-5,"MEAN_MOTION_DOT":-1.517e-5,"MEAN_MOTION_DDOT":0},{"OBJECT_NAME":"STARLINK-2421","OBJECT_ID":"2021-027G","EPOCH":"2025-08-10T10:57:53.078976","MEAN_MOTION":15.06390792,"ECCENTRICITY":0.0001345,"INCLINATION":53.0549,"RA_OF_ASC_NODE":29.8798,"ARG_OF_PERICENTER":87.7278,"MEAN_ANOMALY":272.3865,"EPHEMERIS_TYPE":0,"CLASSIFICATION_TYPE":"U","NORAD_CAT_ID":48098,"ELEMENT_SET_NO":999,"REV_AT_EPOCH":24071,"BSTAR":1.8535e-5,"MEAN_MOTION_DOT":-5.0e-8,"MEAN_MOTION_DDOT":0},{"OBJECT_NAME":"STARLINK-2428","OBJECT_ID":"2021-027H","EPOCH":"2025-08-09T18:45:13.600224","MEAN_MOTION":15.06413094,"ECCENTRICITY":0.0001302,"INCLINATION":53.0539,"RA_OF_ASC_NODE":42.9096,"ARG_OF_PERICENTER":90.7484,"MEAN_ANOMALY":269.3654,"EPHEMERIS_TYPE":0,"CLASSIFICATION_TYPE":"U","NORAD_CAT_ID":48099,"ELEMENT_SET_NO":999,"REV_AT_EPOCH":24047,"BSTAR":0.00042987,"MEAN_MOTION_DOT":6.129e-5,"MEAN_MOTION_DDOT":0},{"OBJECT_NAME":"STARLINK-2430","OBJECT_ID":"2021-027J","EPOCH":"2025-08-10T14:31:31.658592","MEAN_MOTION":15.06384923,"ECCENTRICITY":0.0001428,"INCLINATION":53.0566,"RA_OF_ASC_NODE":19.2148,"ARG_OF_PERICENTER":112.9078,"MEAN_ANOMALY":247.2062,"EPHEMERIS_TYPE":0,"CLASSIFICATION_TYPE":"U","NORAD_CAT_ID":48100,"ELEMENT_SET_NO":999,"REV_AT_EPOCH":24088,"BSTAR":8.1199e-6,"MEAN_MOTION_DOT":-1.61e-6,"MEAN_MOTION_DDOT":0},{"OBJECT_NAME":"STARLINK-2436","OBJECT_ID":"2021-027K","EPOCH":"2025-08-10T14:35:32.523648","MEAN_MOTION":15.06396479,"ECCENTRICITY":0.0001409,"INCLINATION":53.0565,"RA_OF_ASC_NODE":29.4041,"ARG_OF_PERICENTER":93.7137,"MEAN_ANOMALY":266.4013,"EPHEMERIS_TYPE":0,"CLASSIFICATION_TYPE":"U","NORAD_CAT_ID":48101,"ELEMENT_SET_NO":999,"REV_AT_EPOCH":24074,"BSTAR":0.00015588,"MEAN_MOTION_DOT":2.041e-5,"MEAN_MOTION_DDOT":0},{"OBJECT_NAME":"STARLINK-2437","OBJECT_ID":"2021-027L","EPOCH":"2025-08-10T14:52:42.650112","MEAN_MOTION":15.72060163,"ECCENTRICITY":0.0001084,"INCLINATION":53.0535,"RA_OF_ASC_NODE":9.8139,"ARG_OF_PERICENTER":7.24,"MEAN_ANOMALY":352.8633,"EPHEMERIS_TYPE":0,"CLASSIFICATION_TYPE":"U","NORAD_CAT_ID":48102,"ELEMENT_SET_NO":999,"REV_AT_EPOCH":24101,"BSTAR":0.00090532,"MEAN_MOTION_DOT":0.00122226,"MEAN_MOTION_DDOT":0},{"OBJECT_NAME":"STARLINK-2439","OBJECT_ID":"2021-027N","EPOCH":"2025-08-10T04:28:25.131072","MEAN_MOTION":15.06401238,"ECCENTRICITY":0.0001423,"INCLINATION":53.0562,"RA_OF_ASC_NODE":26.0969,"ARG_OF_PERICENTER":90.3119,"MEAN_ANOMALY":269.8033,"EPHEMERIS_TYPE":0,"CLASSIFICATION_TYPE":"U","NORAD_CAT_ID":48104,"ELEMENT_SET_NO":999,"REV_AT_EPOCH":24035,"BSTAR":5.9036e-5,"MEAN_MOTION_DOT":5.98e-6,"MEAN_MOTION_DDOT":0},{"OBJECT_NAME":"STARLINK-2440","OBJECT_ID":"2021-027P","EPOCH":"2025-08-10T13:23:50.868960","MEAN_MOTION":15.06394064,"ECCENTRICITY":0.0001289,"INCLINATION":53.0556,"RA_OF_ASC_NODE":329.4282,"ARG_OF_PERICENTER":95.6824,"MEAN_ANOMALY":264.4312,"EPHEMERIS_TYPE":0,"CLASSIFICATION_TYPE":"U","NORAD_CAT_ID":48105,"ELEMENT_SET_NO":999,"REV_AT_EPOCH":24117,"BSTAR":6.1909e-5,"MEAN_MOTION_DOT":6.41e-6,"MEAN_MOTION_DDOT":0},{"OBJECT_NAME":"STARLINK-2442","OBJECT_ID":"2021-027Q","EPOCH":"2025-08-10T14:36:49.703904","MEAN_MOTION":15.06389898,"ECCENTRICITY":0.0001257,"INCLINATION":53.0553,"RA_OF_ASC_NODE":19.2071,"ARG_OF_PERICENTER":89.7978,"MEAN_ANOMALY":270.3155,"EPHEMERIS_TYPE":0,"CLASSIFICATION_TYPE":"U","NORAD_CAT_ID":48106,"ELEMENT_SET_NO":999,"REV_AT_EPOCH":24088,"BSTAR":-0.00011645,"MEAN_MOTION_DOT":-2.015e-5,"MEAN_MOTION_DDOT":0},{"OBJECT_NAME":"STARLINK-2443","OBJECT_ID":"2021-027R","EPOCH":"2025-08-10T14:58:03.642528","MEAN_MOTION":15.06386712,"ECCENTRICITY":0.0001183,"INCLINATION":53.056,"RA_OF_ASC_NODE":19.1311,"ARG_OF_PERICENTER":93.0942,"MEAN_ANOMALY":267.0182,"EPHEMERIS_TYPE":0,"CLASSIFICATION_TYPE":"U","NORAD_CAT_ID":48107,"ELEMENT_SET_NO":999,"REV_AT_EPOCH":24088,"BSTAR":-8.0356e-7,"MEAN_MOTION_DOT":-2.93e-6,"MEAN_MOTION_DDOT":0},{"OBJECT_NAME":"STARLINK-2448","OBJECT_ID":"2021-027V","EPOCH":"2025-08-10T04:19:47.219232","MEAN_MOTION":15.06401672,"ECCENTRICITY":0.0001293,"INCLINATION":53.0545,"RA_OF_ASC_NODE":31.0904,"ARG_OF_PERICENTER":84.9744,"MEAN_ANOMALY":275.1393,"EPHEMERIS_TYPE":0,"CLASSIFICATION_TYPE":"U","NORAD_CAT_ID":48111,"ELEMENT_SET_NO":999,"REV_AT_EPOCH":24068,"BSTAR":6.4437e-5,"MEAN_MOTION_DOT":6.79e-6,"MEAN_MOTION_DDOT":0},{"OBJECT_NAME":"STARLINK-2449","OBJECT_ID":"2021-027W","EPOCH":"2025-08-10T05:45:25.156800","MEAN_MOTION":15.06392799,"ECCENTRICITY":0.0001264,"INCLINATION":53.0562,"RA_OF_ASC_NODE":46.0219,"ARG_OF_PERICENTER":95.1059,"MEAN_ANOMALY":265.0074,"EPHEMERIS_TYPE":0,"CLASSIFICATION_TYPE":"U","NORAD_CAT_ID":48112,"ELEMENT_SET_NO":999,"REV_AT_EPOCH":24047,"BSTAR":4.3412e-5,"MEAN_MOTION_DOT":3.65e-6,"MEAN_MOTION_DDOT":0},{"OBJECT_NAME":"STARLINK-2450","OBJECT_ID":"2021-027X","EPOCH":"2025-08-09T18:39:55.002816","MEAN_MOTION":15.06409345,"ECCENTRICITY":0.0001334,"INCLINATION":53.0546,"RA_OF_ASC_NODE":42.9302,"ARG_OF_PERICENTER":90.8337,"MEAN_ANOMALY":269.2805,"EPHEMERIS_TYPE":0,"CLASSIFICATION_TYPE":"U","NORAD_CAT_ID":48113,"ELEMENT_SET_NO":999,"REV_AT_EPOCH":24046,"BSTAR":0.00022432,"MEAN_MOTION_DOT":3.062e-5,"MEAN_MOTION_DDOT":0}]
