STARLINK-2404           
1 48093U 21027B   25222.43477653  .00000855  00000+0  76286-4 0  9998
2 48093  53.0551  30.1810 0001541  89.6776 270.4389 15.06390794240713
STARLINK-2412           
1 48094U 21027C   25222.18685633  .00001454  00000+0  11645-3 0  9993
2 48094  53.0540  41.0920 0001437  92.6173 267.4981 15.06405337240145
STARLINK-2414           
1 48095U 21027D   25222.19422698  .00000486  00000+0  51504-4 0  9998
2 48095  53.0554  41.0591 0001404  91.0005 269.1145 15.06401713240141
STARLINK-2417           
1 48096U 21027E   25222.23477634  .00000596  00000+0  58908-4 0  9991
2 48096  53.0551  40.8739 0001291  91.8840 268.2297 15.06398090240544
STARLINK-2418           
1 48097U 21027F   25222.61260066 -.00001517  00000+0 -83005-4 0  9995
2 48097  53.0569  19.1797 0001336  94.4804 265.6337 15.06380064240881
STARLINK-2421           
1 48098U 21027G   25222.45686434 -.00000005  00000+0  18535-4 0  9995
2 48098  53.0549  29.8798 0001345  87.7278 272.3865 15.06390792240711
STARLINK-2428           
1 48099U 21027H   25221.78140741  .00006129  00000+0  42987-3 0  9996
2 48099  53.0539  42.9096 0001302  90.7484 269.3654 15.06413094240470
STARLINK-2430           
1 48100U 21027J   25222.60522753 -.00000161  00000+0  81199-5 0  9999
2 48100  53.0566  19.2148 0001428 112.9078 247.2062 15.06384923240884
STARLINK-2436           
1 48101U 21027K   25222.60801532  .00002041  00000+0  15588-3 0  9990
2 48101  53.0565  29.4041 0001409  93.7137 266.4013 15.06396479240743
STARLINK-2437           
1 48102U 21027L   25222.61993808  .00122226  00000+0  90532-3 0  9990
2 48102  53.0535   9.8139 0001084   7.2400 352.8633 15.72060163241013
STARLINK-2439           
1 48104U 21027N   25222.18640198  .00000598  00000+0  59036-4 0  9997
2 48104  53.0562  26.0969 0001423  90.3119 269.8033 15.06401238240350
STARLINK-2440           
1 48105U 21027P   25222.55822765  .00000641  00000+0  61909-4 0  9992
2 48105  53.0556 329.4282 0001289  95.6824 264.4312 15.06394064241173
STARLINK-2442           
1 48106U 21027Q   25222.60890861 -.00002015  00000+0 -11645-3 0  9991
2 48106  53.0553  19.2071 0001257  89.7978 270.3155 15.06389898240887
STARLINK-2443           
1 48107U 21027R   25222.62365327 -.00000293  00000+0 -80356-6 0  9992
2 48107  53.0560  19.1311 0001183  93.0942 267.0182 15.06386712240884
STARLINK-2448           
1 48111U 21027V   25222.18040763  .00000679  00000+0  64437-4 0  9998
2 48111  53.0545  31.0904 0001293  84.9744 275.1393 15.06401672240689
STARLINK-2449           
1 48112U 21027W   25222.23987450  .00000365  00000+0  43412-4 0  9990
2 48112  53.0562  46.0219 0001264  95.1059 265.0074 15.06392799240475
STARLINK-2450           
1 48113U 21027X   25221.77771994  .00003062  00000+0  22432-3 0  9998
2 48113  53.0546  42.9302 0001334  90.8337 269.2805 15.06409345240468
